GAOFEN-11 01            
1 43585U 18063A   26155.94748920  .00015919  00000+0  23934-3 0  9993
2 43585  97.1297 222.8634 0004521  39.8312 320.3274 15.54923699438444
ICESAT-2                
1 43613U 18070A   26155.91033433  .00011287  00000+0  40945-3 0  9991
2 43613  92.0073 287.6638 0004713 121.0241 239.1471 15.28295795430586
HYSIS                   
1 43719U 18096A   26155.96335006  .00001543  00000+0  21752-3 0  9991
2 43719  97.9841 222.8061 0001576 114.7320 245.4055 14.78670826405612
KAZSTSAT                
1 43783U 18099AB  26155.08802019  .00001472  00000+0  12339-3 0  9993
2 43783  97.4265 187.6128 0007406 103.9174 256.2874 14.99830724409346
SAUDISAT 5A             
1 43831U 18102A   26155.98406196  .00006660  00000+0  24677-3 0  9999
2 43831  97.3068 217.8010 0010049 167.7533 192.3952 15.27917396413817
SAUDISAT 5B             
1 43833U 18102C   26155.93950304  .00006154  00000+0  22639-3 0  9995
2 43833  97.3176 220.8045 0010690 170.6942 189.4498 15.28180184413922
GAOFEN-10R              
1 44622U 19066A   26155.94176810  .00001402  00000+0  17910-3 0  9992
2 44622  98.0497 109.4324 0005763 162.3795 197.7619 14.83033230360561
CARTOSAT-3              
1 44804U 19081A   26155.77478366  .00003923  00000+0  18847-3 0  9993
2 44804  97.4308 217.8408 0012327 187.9749 172.1292 15.19359044361581
GAOFEN-12 01            
1 44819U 19082A   26155.98144181  .00000476  00000+0  68944-4 0  9992
2 44819  97.8101 162.6832 0002519  84.6036 275.5463 14.80448386352284
CSG-1                   
1 44873U 19092A   26155.96695747  .00000543  00000+0  74829-4 0  9994
2 44873  97.8887 339.7466 0001431  91.0661 269.0716 14.82154355349662
NEMO-HD                 
1 46277U 20061F   26155.94931956  .00011966  00000+0  26132-3 0  9999
2 46277  97.1922 218.0276 0002640  94.4896 265.6655 15.44338103320097
SENTINEL-6A             
1 46984U 20086A   26155.20295370 -.00000057  00000+0  18589-4 0  9991
2 46984  66.0385 162.0209 0007954 270.1989  89.8115 12.80929619258668
CAS500-1                
1 47932U 21022A   26155.95143317  .00007060  00000+0  32902-3 0  9995
2 47932  97.3909  51.4513 0004516 351.0466   9.0688 15.20185224288902
GAOFEN-12 02            
1 48079U 21026A   26155.99119725  .00000455  00000+0  66621-4 0  9999
2 48079  97.9920 154.2219 0003332 277.1125  82.9708 14.80286392279955
PLEIADES NEO 3          
1 48268U 21034A   26155.89470293  .00000300  00000+0  44679-4 0  9995
2 48268  97.8937 230.8390 0001410 100.7268 259.4104 14.81673241275835
PLEIADES NEO 4          
1 49070U 21073E   26155.45573171  .00001657  00000+0  21714-3 0  9991
2 49070  97.8930 230.4012 0001444  87.6628 272.4750 14.81677018259488
LANDSAT 9               
1 49260U 21088A   26155.14922468  .00000441  00000+0  10795-3 0  9998
2 49260  98.1855 225.4864 0001501  95.9861 264.1509 14.57125344249104
CSG-2                   
1 51444U 22008A   26155.93318426  .00000392  00000+0  55766-4 0  9991
2 51444  97.8880 339.7084 0001442  82.9157 277.2220 14.82164462234770
GAOFEN-12 03            
1 52912U 22069A   26155.95127976  .00000614  00000+0  87855-4 0  9990
2 52912  97.8292  44.1294 0001489 110.8690 249.2681 14.80013518212805
SWOT                    
1 54754U 22173A   26155.84101752  .00000036  00000+0  26467-4 0  9994
2 54754  77.6112  51.9766 0000203 100.0560 260.0614 14.00173209177429
GAOFEN-12 04            
1 57654U 23123A   26155.96956340  .00001239  00000+0  16979-3 0  9998
2 57654  97.9129  74.1626 0001770  89.0219 271.1196 14.80204723150820
PARS 1                  
1 59065U 24039Q   26155.94878791  .00012151  00000+0  25504-3 0  9993
2 59065  97.4823 136.4861 0010579 148.8360 211.3518 15.45464274126755
RESURS-P 4              
1 59371U 24061A   26155.91912867  .00003728  00000+0  12292-3 0  9998
2 59371  97.2750 104.0328 0001224 129.7912 230.3438 15.32059221121888
LEGION 1                
1 59625U 24081A   26155.88916764  .00004805  00000+0  24920-3 0  9996
2 59625  97.5015 233.8782 0010565  57.2740 302.9510 15.16578672115679
LEGION 2                
1 59626U 24081B   26155.91898493  .00004234  00000+0  22007-3 0  9999
2 59626  97.5015 234.0055 0011978  26.5832 333.6013 15.16558342115688
ALOS-4 (DAICHI-4)       
1 60182U 24123A   26155.91695993  .00001856  00000+0  25534-3 0  9990
2 60182  97.9239 253.2630 0001692  99.2989 260.8414 14.79469334104069
LEGION 3                
1 60452U 24146A   26155.87451698  .00004607  00000+0  24958-3 0  9998
2 60452  45.0008  96.5848 0006722  91.0866 269.0783 15.15940345100152
LEGION 4                
1 60453U 24146B   26155.54807646  .00003987  00000+0  21754-3 0  9992
2 60453  44.9994 190.2471 0013925 242.8114 117.1345 15.15942508 98958
SENTINEL-2C             
1 60989U 24157A   26155.72497982  .00000136  00000+0  68620-4 0  9993
2 60989  98.5692 230.6826 0001227  79.7709 280.3612 14.30814396 91204
IONOSFERA-M 1           
1 61735U 24199A   26155.88674432  .00000066  00000+0  48882-4 0  9993
2 61735  98.7187  29.1880 0001551 126.7122 233.4199 14.22752025125958
