OBJECT_NAME,OBJECT_ID,EPOCH,MEAN_MOTION,ECCENTRICITY,INCLINATION,RA_OF_ASC_NODE,ARG_OF_PERICENTER,MEAN_ANOMALY,EPHEMERIS_TYPE,CLASSIFICATION_TYPE,NORAD_CAT_ID,ELEMENT_SET_NO,REV_AT_EPOCH,BSTAR,MEAN_MOTION_DOT,MEAN_MOTION_DDOT
GAOFEN-11 01,2018-063A,2026-06-04T22:44:23.066880,15.54923699,.00045218,97.1297,222.8634,39.8312,320.3274,0,U,43585,999,43844,.23934177E-3,.15919E-3,0
ICESAT-2,2018-070A,2026-06-04T21:50:52.886112,15.28295795,.00047134,92.0073,287.6638,121.0241,239.1471,0,U,43613,999,43058,.40945457E-3,.11287E-3,0
HYSIS,2018-096A,2026-06-04T23:07:13.445184,14.78670826,.0001576,97.9841,222.8061,114.7320,245.4055,0,U,43719,999,40561,.21752416E-3,.1543E-4,0
KAZSTSAT,2018-099AB,2026-06-04T02:06:44.944416,14.99830724,.0007406,97.4265,187.6128,103.9174,256.2874,0,U,43783,999,40934,.12339E-3,.1472E-4,0
SAUDISAT 5A,2018-102A,2026-06-04T23:37:02.953344,15.27917396,.00100495,97.3068,217.8010,167.7533,192.3952,0,U,43831,999,41381,.24677123E-3,.666E-4,0
SAUDISAT 5B,2018-102C,2026-06-04T22:32:53.062656,15.28180184,.00106908,97.3176,220.8045,170.6942,189.4498,0,U,43833,999,41392,.22639317E-3,.6154E-4,0
GAOFEN-10R,2019-066A,2026-06-04T22:36:08.763840,14.83033230,.00057636,98.0497,109.4324,162.3795,197.7619,0,U,44622,999,36056,.17910164E-3,.1402E-4,0
CARTOSAT-3,2019-081A,2026-06-04T18:35:41.308224,15.19359044,.00123272,97.4308,217.8408,187.9749,172.1292,0,U,44804,999,36158,.18847441E-3,.3923E-4,0
GAOFEN-12 01,2019-082A,2026-06-04T23:33:16.572384,14.80448386,.0002519,97.8101,162.6832,84.6036,275.5463,0,U,44819,999,35228,.68944437E-4,.476E-5,0
CSG-1,2019-092A,2026-06-04T23:12:25.125408,14.82154355,.00014311,97.8887,339.7466,91.0661,269.0716,0,U,44873,999,34966,.7482922E-4,.543E-5,0
NEMO-HD,2020-061F,2026-06-04T22:47:01.209984,15.44338103,.00026409,97.1922,218.0276,94.4896,265.6655,0,U,46277,999,32009,.26132363E-3,.11966E-3,0
SENTINEL-6A,2020-086A,2026-06-04T04:52:15.199680,12.80929619,.0007954,66.0385,162.0209,270.1989,89.8115,0,U,46984,999,25866,.18588762E-4,-.57E-6,0
CAS500-1,2021-022A,2026-06-04T22:50:03.825888,15.20185224,.00045165,97.3909,51.4513,351.0466,9.0688,0,U,47932,999,28890,.32901713E-3,.706E-4,0
GAOFEN-12 02,2021-026A,2026-06-04T23:47:19.442400,14.80286392,.00033327,97.9920,154.2219,277.1125,82.9708,0,U,48079,999,27995,.6662118E-4,.455E-5,0
PLEIADES NEO 3,2021-034A,2026-06-04T21:28:22.333152,14.81673241,.00014105,97.8937,230.8390,100.7268,259.4104,0,U,48268,999,27583,.44678811E-4,.3E-5,0
PLEIADES NEO 4,2021-073E,2026-06-04T10:56:15.219744,14.81677018,.00014443,97.8930,230.4012,87.6628,272.4750,0,U,49070,999,25948,.2171362E-3,.1657E-4,0
LANDSAT 9,2021-088A,2026-06-04T03:34:53.012352,14.57125344,.00015015,98.1855,225.4864,95.9861,264.1509,0,U,49260,999,24910,.10795255E-3,.441E-5,0
CSG-2,2022-008A,2026-06-04T22:23:47.120064,14.82164462,.00014428,97.8880,339.7084,82.9157,277.2220,0,U,51444,999,23477,.55765753E-4,.392E-5,0
GAOFEN-12 03,2022-069A,2026-06-04T22:49:50.571264,14.80013518,.00014899,97.8292,44.1294,110.8690,249.2681,0,U,52912,999,21280,.87854698E-4,.614E-5,0
SWOT,2022-173A,2026-06-04T20:11:03.913728,14.00173209,.00002032,77.6112,51.9766,100.0560,260.0614,0,U,54754,999,17742,.26466728E-4,.36E-6,0
GAOFEN-12 04,2023-123A,2026-06-04T23:16:10.277760,14.80204723,.000177,97.9129,74.1626,89.0219,271.1196,0,U,57654,999,15082,.16978732E-3,.1239E-4,0
PARS 1,2024-039Q,2026-06-04T22:46:15.275424,15.45464274,.00105792,97.4823,136.4861,148.8360,211.3518,0,U,59065,999,12675,.25504006E-3,.12151E-3,0
RESURS-P 4,2024-061A,2026-06-04T22:03:32.717088,15.32059221,.00012241,97.2750,104.0328,129.7912,230.3438,0,U,59371,999,12188,.12292076E-3,.3728E-4,0
LEGION 1,2024-081A,2026-06-04T21:20:24.084096,15.16578672,.00105658,97.5015,233.8782,57.2740,302.9510,0,U,59625,999,11567,.24920289E-3,.4805E-4,0
LEGION 2,2024-081B,2026-06-04T22:03:20.297952,15.16558342,.00119784,97.5015,234.0055,26.5832,333.6013,0,U,59626,999,11568,.22006591E-3,.4234E-4,0
ALOS-4 (DAICHI-4),2024-123A,2026-06-04T22:00:25.337952,14.79469334,.00016921,97.9239,253.2630,99.2989,260.8414,0,U,60182,999,10406,.25533698E-3,.1856E-4,0
LEGION 3,2024-146A,2026-06-04T20:59:18.267072,15.15940345,.00067222,45.0008,96.5848,91.0866,269.0783,0,U,60452,999,10015,.24958254E-3,.4607E-4,0
LEGION 4,2024-146B,2026-06-04T13:09:13.806144,15.15942508,.00139256,44.9994,190.2471,242.8114,117.1345,0,U,60453,999,9895,.2175362E-3,.3987E-4,0
SENTINEL-2C,2024-157A,2026-06-04T17:23:58.256448,14.30814396,.00012273,98.5692,230.6826,79.7709,280.3612,0,U,60989,999,9120,.68620374E-4,.136E-5,0
IONOSFERA-M 1,2024-199A,2026-06-04T21:16:54.709248,14.22752025,.00015518,98.7187,29.1880,126.7122,233.4199,0,U,61735,999,12595,.48881896E-4,.66E-6,0
